{
  "type": "FeatureCollection",
  "features": [
    {
      "type": "Feature",
      "properties": {
        "norad_id": 34963,
        "name": "COSMOS 2251 DEB",
        "group": "cosmos-2251-debris",
        "lat": -11.33011119729995,
        "lon": -145.64571917380442,
        "alt_km": 701.1584477853976,
        "timestamp": "2025-12-18T23:35:49.458778+00:00",
        "meta_object_name": "COSMOS 2251 DEB",
        "meta_object_id": "1993-036AES",
        "meta_epoch": "2025-12-18T09:28:38.471808",
        "meta_mean_motion": 14.51136522,
        "meta_eccentricity": 0.00423247,
        "meta_inclination": 74.1717,
        "meta_ra_of_asc_node": 32.1929,
        "meta_arg_of_pericenter": 227.6243,
        "meta_mean_anomaly": 132.1333,
        "meta_ephemeris_type": 0,
        "meta_classification_type": "U",
        "meta_norad_cat_id": 34963,
        "meta_element_set_no": 999,
        "meta_rev_at_epoch": 86883,
        "meta_bstar": 0.001019062,
        "meta_mean_motion_dot": 4.064e-05,
        "meta_mean_motion_ddot": 0,
        "tle_line1": "1 34963U 93036AES 25352.39488972  .00004064  00000+0  10191-2 0  9990",
        "tle_line2": "2 34963  74.1717  32.1929 0042324 227.6243 132.1333 14.51136522868830"
      },
      "geometry": {
        "type": "Point",
        "coordinates": [
          -145.64571917380442,
          -11.33011119729995
        ]
      }
    },
    {
      "type": "Feature",
      "properties": {
        "norad_id": 34964,
        "name": "COSMOS 2251 DEB",
        "group": "cosmos-2251-debris",
        "lat": 23.102178018152422,
        "lon": 149.9290031216169,
        "alt_km": 768.3742988263803,
        "timestamp": "2025-12-18T23:35:49.458788+00:00",
        "meta_object_name": "COSMOS 2251 DEB",
        "meta_object_id": "1993-036AET",
        "meta_epoch": "2025-12-18T07:25:04.519776",
        "meta_mean_motion": 14.00628567,
        "meta_eccentricity": 0.02123167,
        "meta_inclination": 73.9712,
        "meta_ra_of_asc_node": 338.1457,
        "meta_arg_of_pericenter": 195.4091,
        "meta_mean_anomaly": 164.0515,
        "meta_ephemeris_type": 0,
        "meta_classification_type": "U",
        "meta_norad_cat_id": 34964,
        "meta_element_set_no": 999,
        "meta_rev_at_epoch": 84556,
        "meta_bstar": 0.00089791859,
        "meta_mean_motion_dot": 1.6e-05,
        "meta_mean_motion_ddot": 0,
        "tle_line1": "1 34964U 93036AET 25352.30908009  .00001600  00000+0  89792-3 0  9997",
        "tle_line2": "2 34964  73.9712 338.1457 0212316 195.4091 164.0515 14.00628567845561"
      },
      "geometry": {
        "type": "Point",
        "coordinates": [
          149.9290031216169,
          23.102178018152422
        ]
      }
    },
    {
      "type": "Feature",
      "properties": {
        "norad_id": 34965,
        "name": "COSMOS 2251 DEB",
        "group": "cosmos-2251-debris",
        "lat": -44.84052728114663,
        "lon": -46.698838714010144,
        "alt_km": 718.1017847483427,
        "timestamp": "2025-12-18T23:35:49.458798+00:00",
        "meta_object_name": "COSMOS 2251 DEB",
        "meta_object_id": "1993-036AEU",
        "meta_epoch": "2025-12-17T15:03:41.961600",
        "meta_mean_motion": 14.48719577,
        "meta_eccentricity": 0.00264531,
        "meta_inclination": 74.0515,
        "meta_ra_of_asc_node": 119.3168,
        "meta_arg_of_pericenter": 245.8821,
        "meta_mean_anomaly": 113.9572,
        "meta_ephemeris_type": 0,
        "meta_classification_type": "U",
        "meta_norad_cat_id": 34965,
        "meta_element_set_no": 999,
        "meta_rev_at_epoch": 87184,
        "meta_bstar": 0.00029308961,
        "meta_mean_motion_dot": 1.082e-05,
        "meta_mean_motion_ddot": 0,
        "tle_line1": "1 34965U 93036AEU 25351.62756900  .00001082  00000+0  29309-3 0  9995",
        "tle_line2": "2 34965  74.0515 119.3168 0026453 245.8821 113.9572 14.48719577871849"
      },
      "geometry": {
        "type": "Point",
        "coordinates": [
          -46.698838714010144,
          -44.84052728114663
        ]
      }
    },
    {
      "type": "Feature",
      "properties": {
        "norad_id": 34967,
        "name": "COSMOS 2251 DEB",
        "group": "cosmos-2251-debris",
        "lat": 36.812035325523304,
        "lon": -105.37813034779624,
        "alt_km": 714.7865766696523,
        "timestamp": "2025-12-18T23:35:49.458809+00:00",
        "meta_object_name": "COSMOS 2251 DEB",
        "meta_object_id": "1993-036AEW",
        "meta_epoch": "2025-12-13T00:27:20.673792",
        "meta_mean_motion": 14.44269018,
        "meta_eccentricity": 0.00380101,
        "meta_inclination": 73.9933,
        "meta_ra_of_asc_node": 253.3374,
        "meta_arg_of_pericenter": 39.5345,
        "meta_mean_anomaly": 320.8573,
        "meta_ephemeris_type": 0,
        "meta_classification_type": "U",
        "meta_norad_cat_id": 34967,
        "meta_element_set_no": 999,
        "meta_rev_at_epoch": 64961,
        "meta_bstar": 0.0011451852,
        "meta_mean_motion_dot": 3.946e-05,
        "meta_mean_motion_ddot": 0,
        "tle_line1": "1 34967U 93036AEW 25347.01898928  .00003946  00000+0  11452-2 0  9992",
        "tle_line2": "2 34967  73.9933 253.3374 0038010  39.5345 320.8573 14.44269018649616"
      },
      "geometry": {
        "type": "Point",
        "coordinates": [
          -105.37813034779624,
          36.812035325523304
        ]
      }
    },
    {
      "type": "Feature",
      "properties": {
        "norad_id": 34968,
        "name": "COSMOS 2251 DEB",
        "group": "cosmos-2251-debris",
        "lat": -50.047154247542416,
        "lon": 75.14648699099125,
        "alt_km": 733.029291997017,
        "timestamp": "2025-12-18T23:35:49.458819+00:00",
        "meta_object_name": "COSMOS 2251 DEB",
        "meta_object_id": "1993-036AEX",
        "meta_epoch": "2025-12-18T02:47:14.790624",
        "meta_mean_motion": 14.59415645,
        "meta_eccentricity": 0.00869026,
        "meta_inclination": 74.0387,
        "meta_ra_of_asc_node": 236.821,
        "meta_arg_of_pericenter": 355.8378,
        "meta_mean_anomaly": 4.2053,
        "meta_ephemeris_type": 0,
        "meta_classification_type": "U",
        "meta_norad_cat_id": 34968,
        "meta_element_set_no": 999,
        "meta_rev_at_epoch": 88556,
        "meta_bstar": 0.00011312461,
        "meta_mean_motion_dot": 5.32e-06,
        "meta_mean_motion_ddot": 0,
        "tle_line1": "1 34968U 93036AEX 25352.11614341  .00000532  00000+0  11312-3 0  9999",
        "tle_line2": "2 34968  74.0387 236.8210 0086902 355.8378   4.2053 14.59415645885567"
      },
      "geometry": {
        "type": "Point",
        "coordinates": [
          75.14648699099125,
          -50.047154247542416
        ]
      }
    },
    {
      "type": "Feature",
      "properties": {
        "norad_id": 34969,
        "name": "COSMOS 2251 DEB",
        "group": "cosmos-2251-debris",
        "lat": 67.362587502368,
        "lon": 55.16105668902338,
        "alt_km": 758.624582877882,
        "timestamp": "2025-12-18T23:35:49.458829+00:00",
        "meta_object_name": "COSMOS 2251 DEB",
        "meta_object_id": "1993-036AEY",
        "meta_epoch": "2025-12-15T18:08:26.126880",
        "meta_mean_motion": 14.32260529,
        "meta_eccentricity": 0.00734759,
        "meta_inclination": 74.0142,
        "meta_ra_of_asc_node": 17.6317,
        "meta_arg_of_pericenter": 150.1137,
        "meta_mean_anomaly": 210.4241,
        "meta_ephemeris_type": 0,
        "meta_classification_type": "U",
        "meta_norad_cat_id": 34969,
        "meta_element_set_no": 999,
        "meta_rev_at_epoch": 65180,
        "meta_bstar": 0.00024953546,
        "meta_mean_motion_dot": 6.68e-06,
        "meta_mean_motion_ddot": 0,
        "tle_line1": "1 34969U 93036AEY 25349.75585795  .00000668  00000+0  24954-3 0  9992",
        "tle_line2": "2 34969  74.0142  17.6317 0073475 150.1137 210.4241 14.32260529651808"
      },
      "geometry": {
        "type": "Point",
        "coordinates": [
          55.16105668902338,
          67.362587502368
        ]
      }
    },
    {
      "type": "Feature",
      "properties": {
        "norad_id": 34971,
        "name": "COSMOS 2251 DEB",
        "group": "cosmos-2251-debris",
        "lat": -30.694498978585703,
        "lon": 102.9576177170557,
        "alt_km": 699.6573888118455,
        "timestamp": "2025-12-18T23:35:49.458874+00:00",
        "meta_object_name": "COSMOS 2251 DEB",
        "meta_object_id": "1993-036AFA",
        "meta_epoch": "2025-12-18T11:38:13.277760",
        "meta_mean_motion": 14.55642375,
        "meta_eccentricity": 0.00693978,
        "meta_inclination": 73.9787,
        "meta_ra_of_asc_node": 274.0839,
        "meta_arg_of_pericenter": 138.3039,
        "meta_mean_anomaly": 342.538,
        "meta_ephemeris_type": 0,
        "meta_classification_type": "U",
        "meta_norad_cat_id": 34971,
        "meta_element_set_no": 999,
        "meta_rev_at_epoch": 66256,
        "meta_bstar": 0.00012982435,
        "meta_mean_motion_dot": 5.55e-06,
        "meta_mean_motion_ddot": 0,
        "tle_line1": "1 34971U 93036AFA 25352.48487590  .00000555  00000+0  12982-3 0  9996",
        "tle_line2": "2 34971  73.9787 274.0839 0069397 138.3039 342.5380 14.55642375662563"
      },
      "geometry": {
        "type": "Point",
        "coordinates": [
          102.9576177170557,
          -30.694498978585703
        ]
      }
    }
  ]
}